OBJECT_NAME,OBJECT_ID,EPOCH,MEAN_MOTION,ECCENTRICITY,INCLINATION,RA_OF_ASC_NODE,ARG_OF_PERICENTER,MEAN_ANOMALY,EPHEMERIS_TYPE,CLASSIFICATION_TYPE,NORAD_CAT_ID,ELEMENT_SET_NO,REV_AT_EPOCH,BSTAR,MEAN_MOTION_DOT,MEAN_MOTION_DDOT
SWARM B,2013-067A,2026-06-27T22:27:24.182784,15.28615663,.00029878,87.7441,339.0505,81.5067,278.6521,0,U,39451,999,68488,.12522903E-3,.3518E-4,0
SWARM A,2013-067B,2026-06-27T22:18:45.843264,15.51152847,.00031535,87.3320,52.2501,97.0119,263.1500,0,U,39452,999,70791,.17177979E-3,.10064E-3,0
SWARM C,2013-067C,2026-06-27T22:18:36.919872,15.51151670,.00031548,87.3319,50.8311,97.3702,262.7918,0,U,39453,999,70787,.17015762E-3,.9968E-4,0
BRITE-CA1 (TORONTO),2014-033L,2026-06-27T20:10:57.304128,14.72692615,.00773793,97.9750,307.5731,242.3094,117.0247,0,U,40020,999,64378,.13683983E-3,.86E-5,0
OCO 2,2014-035A,2026-06-27T22:28:40.116288,14.57119553,.00015012,98.2019,120.0659,83.4227,276.7142,0,U,40059,999,63761,.95711596E-4,.386E-5,0
BRITE-PL2 (HEWELIUSZ),2014-049B,2026-06-27T21:13:04.613952,14.94632612,.00153112,97.9108,290.9670,75.8215,284.4705,0,U,40119,999,64304,.15402166E-3,.1612E-4,0
MMS 1,2015-011A,2026-06-28T00:00:02.000160,0.28445688,.83128707,72.2609,348.6927,167.6290,321.5585,0,U,40482,999,138,0,-.911E-5,0
MMS 2,2015-011B,2026-06-28T00:00:02.000160,0.28453416,.83153514,72.2642,348.6922,167.6313,321.5392,0,U,40483,999,138,0,-.912E-5,0
MMS 3,2015-011C,2026-06-28T00:00:02.000160,0.28445662,.83140518,72.2646,348.7036,167.6398,321.5227,0,U,40484,999,138,0,-.911E-5,0
MMS 4,2015-011D,2026-06-28T00:00:02.000160,0.28445621,.8313958,72.2608,348.6868,167.6496,321.5158,0,U,40485,999,138,0,-.911E-5,0
ASTROSAT,2015-052A,2026-06-27T07:36:28.158048,14.82523206,.00079051,5.9975,82.4253,183.2335,176.7742,0,U,40930,999,58133,.10751802E-3,.1555E-4,0
DAMPE,2015-078A,2026-06-27T22:53:48.981696,15.30811111,.00133128,97.4558,184.4738,43.9388,316.2909,0,U,41173,999,58619,.35311961E-4,.976E-5,0
PISAT,2016-059B,2026-06-27T23:23:03.520320,14.69001004,.00293021,97.8179,178.9636,168.1157,192.0747,0,U,41784,999,52132,.16113235E-3,.903E-5,0
HXMT (HUIYAN),2017-034A,2026-06-27T22:07:23.792160,15.18549112,.00322286,43.0136,123.2633,215.2925,144.5789,0,U,42758,999,49929,.22242396E-3,.4498E-4,0
FLYING LAPTOP,2017-042G,2026-06-27T22:00:44.496288,15.01214941,.00199761,97.4727,334.0401,87.2955,273.0556,0,U,42831,999,48806,.3758917E-3,.4788E-4,0
ZHANGHENG 1-01 (CSES-1),2018-015C,2026-06-27T22:17:57.473952,15.20947436,.00174345,97.6872,344.8011,226.4465,133.5323,0,U,43194,999,46627,.34040963E-3,.7495E-4,0
SALSAT,2020-068K,2026-06-27T17:47:39.077664,15.29943751,.00078426,97.8846,182.4496,262.7765,97.2583,0,U,46495,999,31697,.25510061E-3,.7317E-4,0
IXPE,2021-121A,2026-06-27T22:00:01.999584,15.10350633,.00073706,0.2297,236.8035,242.5939,250.5241,0,U,49954,999,523,.57302046E-3,.10622E-3,0
SMILE,2026-109A,2026-06-07T09:11:54.544416,7.54049028,.3310191,69.9787,209.3069,288.5544,45.7342,0,U,69123,999,248,-.36778157E-3,-.41E-6,0
