SWARM B                 
1 39451U 13067A   26178.93569656  .00003518  00000+0  12523-3 0  9994
2 39451  87.7441 339.0505 0002987  81.5067 278.6521 15.28615663684881
SWARM A                 
1 39452U 13067B   26178.92969726  .00010064  00000+0  17178-3 0  9991
2 39452  87.3320  52.2501 0003153  97.0119 263.1500 15.51152847707912
SWARM C                 
1 39453U 13067C   26178.92959398  .00009968  00000+0  17016-3 0  9998
2 39453  87.3319  50.8311 0003154  97.3702 262.7918 15.51151670707872
BRITE-CA1 (TORONTO)     
1 40020U 14033L   26178.84094102  .00000860  00000+0  13684-3 0  9997
2 40020  97.9750 307.5731 0077379 242.3094 117.0247 14.72692615643781
OCO 2                   
1 40059U 14035A   26178.93657542  .00000386  00000+0  95712-4 0  9990
2 40059  98.2019 120.0659 0001501  83.4227 276.7142 14.57119553637618
BRITE-PL2 (HEWELIUSZ)   
1 40119U 14049B   26178.88408118  .00001612  00000+0  15402-3 0  9999
2 40119  97.9108 290.9670 0015311  75.8215 284.4705 14.94632612643048
MMS 1                   
1 40482U 15011A   26179.00002315 -.00000911  00000+0  00000+0 0  9992
2 40482  72.2609 348.6927 8312870 167.6290 321.5585  0.28445688  1381
MMS 2                   
1 40483U 15011B   26179.00002315 -.00000912  00000+0  00000+0 0  9994
2 40483  72.2642 348.6922 8315351 167.6313 321.5392  0.28453416  1381
MMS 3                   
1 40484U 15011C   26179.00002315 -.00000911  00000+0  00000+0 0  9994
2 40484  72.2646 348.7036 8314051 167.6398 321.5227  0.28445662  1383
MMS 4                   
1 40485U 15011D   26179.00002315 -.00000911  00000+0  00000+0 0  9995
2 40485  72.2608 348.6868 8313958 167.6496 321.5158  0.28445621  1386
ASTROSAT                
1 40930U 15052A   26178.31699257  .00001555  00000+0  10752-3 0  9998
2 40930   5.9975  82.4253 0007905 183.2335 176.7742 14.82523206581330
DAMPE                   
1 41173U 15078A   26178.95403914  .00000976  00000+0  35312-4 0  9995
2 41173  97.4558 184.4738 0013312  43.9388 316.2909 15.30811111586197
PISAT                   
1 41784U 16059B   26178.97434630  .00000903  00000+0  16113-3 0  9991
2 41784  97.8179 178.9636 0029302 168.1157 192.0747 14.69001004521320
HXMT (HUIYAN)           
1 42758U 17034A   26178.92180315  .00004498  00000+0  22242-3 0  9993
2 42758  43.0136 123.2633 0032228 215.2925 144.5789 15.18549112499296
FLYING LAPTOP           
1 42831U 17042G   26178.91718167  .00004788  00000+0  37589-3 0  9997
2 42831  97.4727 334.0401 0019976  87.2955 273.0556 15.01214941488061
ZHANGHENG 1-01 (CSES-1) 
1 43194U 18015C   26178.92913743  .00007495  00000+0  34041-3 0  9997
2 43194  97.6872 344.8011 0017434 226.4465 133.5323 15.20947436466277
SALSAT                  
1 46495U 20068K   26178.74142451  .00007317  00000+0  25510-3 0  9999
2 46495  97.8846 182.4496 0007842 262.7765  97.2583 15.29943751316978
IXPE                    
1 49954U 21121A   26178.91668981  .00010622  00000+0  57302-3 0  9990
2 49954   0.2297 236.8035 0007370 242.5939 250.5241 15.10350633  5237
SMILE                   
1 69123U 26109A   26158.38327019 -.00000041  00000+0 -36778-3 0  9994
2 69123  69.9787 209.3069 3310191 288.5544  45.7342  7.54049028  2480
